#aV2013  4  9  0  0  0.00000000     288 DD+AD WGS84 FIT  NGA
## 1735 172800.00000000   300.00000000 56391 0.0000000000000
+   30     1  2  3  4  5  6  7  8  9 10 11 12 13 14 15 16 17
+         18 19 20 21 22 23 24 25 26 28 29 31 32  0  0  0  0
+          0  0  0  0  0  0  0  0  0  0  0  0  0  0  0  0  0
+          0  0  0  0  0  0  0  0  0  0  0  0  0  0  0  0  0
+          0  0  0  0  0  0  0  0  0  0  0  0  0  0  0  0  0
++         2  2  2  2  2  2  2  2  2  2  2  2  2  2  2  2  2
++         2  2  2  2  2  2  2  2  2  2  2  2  2  2  2  0  0
++         0  0  0  0  0  0  0  0  0  0  0  0  0  0  0  0  0
++         0  0  0  0  0  0  0  0  0  0  0  0  0  0  0  0  0
++         0  0  0  0  0  0  0  0  0  0  0  0  0  0  0  0  0
%c cc cc ccc ccc cccc cccc cccc cccc ccccc ccccc ccccc ccccc
%c cc cc ccc ccc cccc cccc cccc cccc ccccc ccccc ccccc ccccc
%f  0.0000000  0.000000000  0.00000000000  0.000000000000000
%f  0.0000000  0.000000000  0.00000000000  0.000000000000000
%i    0    0    0    0      0      0      0      0         0
%i    0    0    0    0      0      0      0      0         0
/*      NGA, ST. LOUIS,MO.                                  
/*   EPHEMERIS COMPUTED FROM  1 DAYS OF DATA
/*   EPOCHA SMOOTHER  
/* CCCCCCCCCCCCCCCCCCCCCCCCCCCCCCCCCCCCCCCCCCCCCCCCCCCCCCCCC
*  2013  4  9 21  5  0.00000000                                                 
P  1 -16115.139962 -13527.772608 -16274.455541     14.759460                    
V  1  20669.456934    786.551313 -21064.602954      0.034537                    
P  2  -8306.614268  14426.438286  20798.056888    426.491960                    
V  2 -25882.547774  -3878.877946  -8234.304736      0.018787                    
P  3   6751.652508 -24426.389572  -8063.222263    191.967100                    
V  3   7750.046667  -6751.840762  28986.776587      0.049482                    
P  4 -20872.074452   7986.098964  14284.757314    185.798958                    
V  4 -18117.556550  -4773.827482 -23066.860907      0.108395                    
P  5    -98.675345  23207.975605  12757.853006   -391.052268                    
V  5  -8825.602737 -13993.443065  25466.686320     -0.013220                    
P  6  12927.105668 -22823.779563  -2556.913829    280.360276                    
V  6   5018.257507   -747.093158  31299.949750     -0.155241                    
P  7 -25771.226768  -6162.931750   3477.420500    200.873450                    
V  7   4576.471959  -1420.802695  31487.872082      0.042949                    
P  8 -25874.240498  -1605.321195  -6963.818896      5.562255                    
V  8  -8318.293354  -3113.120252  30576.161871      0.000704                    
P  9 -12093.189155  12377.733929 -20706.059172    232.923547                    
V  9 -24732.591295  -3702.804453  12509.176905      0.026709                    
P 10 -12617.409945   9458.061683  21036.854253    -76.138735                    
V 10 -10911.575238 -25261.562579   5156.852947     -0.011148                    
P 11  -9701.224360 -14973.488014 -20165.157063   -370.742383                    
V 11  24412.297417  -5246.888979  -7742.020547     -0.037128                    
P 12  11310.114291  23977.116607   2927.872209    127.502411                    
V 12   -433.081307   4155.328848 -31833.331794      0.020577                    
P 13 -14625.702551  -5276.997914  21409.047158    130.100707                    
V 13  18343.905308 -20413.453058   7333.274219     -0.035653                    
P 14  20631.942361 -12709.856375 -10510.135707    221.090244                    
V 14  -7313.741938  11759.405482 -28199.086994      0.000087                    
P 15   1635.289402  19742.999148 -17599.989873   -114.662885                    
V 15 -14784.148281  17025.091576  18006.616787     -0.014436                    
P 16   1498.748379 -22517.162238  13707.988785   -252.569724                    
V 16   7735.496858  15833.339309  25465.655864      0.000608                    
P 17 -20221.194250  13589.719354 -10068.162935     31.499677                    
V 17   6341.775510 -11843.998169 -28348.219004     -0.040524                    
P 18  17708.298440   6658.596100 -18374.930175    248.087874                    
V 18   7678.012857  22972.204542  15039.976208      0.018498                    
P 19   3365.273871 -20548.291596 -16321.888196   -363.492757                    
V 19  15530.053708 -13901.768450  21220.590522     -0.031802                    
P 20 -14573.657812 -21653.513081   4948.371979     92.195739                    
V 20    482.725045  -7471.832693 -30130.830506      0.018450                    
P 21  26609.007039   3613.862160    306.620561   -290.993854                    
V 21   -145.674151   3276.884601  30753.543706     -0.021800                    
P 22  14657.747896  -6102.208611 -21102.195363    163.883432                    
V 22  10575.600237  25258.011939    -99.681551      0.013726                    
P 23  -8665.227467 -13329.950836  21284.125490     96.764198                    
V 23  17171.646457 -20798.493297  -6437.850196     -0.036442                    
P 24  12543.323154  14492.221083 -18413.461345     -4.222903                    
V 24 -23367.853048  -1254.813250 -16874.422343     -0.006999                    
P 25  16498.181993  16531.199204  12695.537356     85.810363                    
V 25   4573.642540  15592.442892 -26060.752170      0.036752                    
P 26 -11035.780020  22045.774248 -10049.792617    -33.406936                    
V 26  -9605.699319   7367.224658  28873.176580      0.149825                    
P 28 -14849.992910    904.985155 -21440.989925    248.505077                    
V 28  -9294.940111 -26985.140288   4989.670950      0.034064                    
P 29  14879.011334   5309.783409  21400.156018    424.864454                    
V 29 -16925.631923  21089.785925   6596.757624      0.034603                    
P 31  18966.821313  -8544.547993  16848.440783    310.000725                    
V 31  20493.430763   4315.508120 -20825.407471      0.015512                    
P 32  -7264.852478 -25799.273209  -1383.972297   -549.254122                    
V 32   3169.362284    974.578518 -31110.301044     -0.025183                    
EOF
